IRIDIUM 155             
1 43573U 18061E   24030.63257149  .00000392  00000+0  13299-3 0  9994
2 43573  86.3926  59.6698 0002097  86.5041 273.6395 14.34219972288862
IRIDIUM 154             
1 43574U 18061F   24031.17169439 -.00000043  00000+0 -22551-4 0  9996
2 43574  86.3929  59.5354 0002314  92.5983 267.5478 14.34218477288995
IRIDIUM 163             
1 43575U 18061G   24030.59451472  .00000316  00000+0  10563-3 0  9993
2 43575  86.3927  59.7195 0002292  89.8414 270.3045 14.34216130288886
IRIDIUM 156             
1 43576U 18061H   24030.91798804  .00000263  00000+0  86811-4 0  9994
2 43576  86.3929  59.5901 0001973  95.5155 264.6265 14.34219378288925
IRIDIUM 164             
1 43577U 18061J   24030.61988593  .00000243  00000+0  79651-4 0  9990
2 43577  86.3930  59.7419 0002258 100.1334 260.0116 14.34219261288929
IRIDIUM 159             
1 43578U 18061K   24030.58816959  .00000341  00000+0  11454-3 0  9998
2 43578  86.3927  59.7098 0002340  92.4663 267.6800 14.34221237288883
IRIDIUM 180             
1 43922U 19002A   24030.93650644  .00000537  00000+0  18469-3 0  9993
2 43922  86.3999 356.4493 0002253  85.0825 275.0628 14.34213978264543
IRIDIUM 176             
1 43923U 19002B   24030.93955912  .00001555  00000+0  24270-3 0  9998
2 43923  86.6127 356.4769 0002280  92.0235 268.1243 14.72254669271503
IRIDIUM 168             
1 43924U 19002C   24030.93017339  .00000090  00000+0  25107-4 0  9995
2 43924  86.4002 356.5045 0002233  89.5946 270.5505 14.34217164264529
IRIDIUM 173             
1 43925U 19002D   24030.98725126  .00000281  00000+0  93336-4 0  9992
2 43925  86.3998 356.4052 0002241  87.5859 272.5594 14.34217085264522
IRIDIUM 169             
1 43926U 19002E   24030.91800572  .00000241  00000+0  72332-4 0  9994
2 43926  86.4218  28.0334 0002266  18.8640 341.2642 14.38600784265396
IRIDIUM 172             
1 43927U 19002F   24030.91114557  .00000163  00000+0  51242-4 0  9996
2 43927  86.3997 356.4419 0002242  86.3480 273.7972 14.34217506264518
IRIDIUM 175             
1 43928U 19002G   24030.93363736  .00001595  00000+0  24902-3 0  9996
2 43928  86.1547 337.4485 0002348  83.3657 276.7827 14.72250357271490
IRIDIUM 171             
1 43929U 19002H   24030.96187948  .00000025  00000+0  17780-5 0  9994
2 43929  86.4007 356.6310 0002111  89.5842 270.5596 14.34214626264514
IRIDIUM 170             
1 43930U 19002J   24030.94578317  .00001551  00000+0  24201-3 0  9997
2 43930  86.6128 356.4790 0002464  91.6236 268.5263 14.72257710271513
IRIDIUM 167             
1 43931U 19002K   24030.95553998  .00000397  00000+0  13453-3 0  9991
2 43931  86.4000 356.4386 0002219  91.7742 268.3708 14.34218998264510
IRIDIUM 181             
1 56726U 23068S   24030.95921532  .00000240  00000+0  65124-4 0  9997
2 56726  86.8604  43.4431 0001952 105.4734 254.6683 14.43570850 37191
IRIDIUM 177             
1 56727U 23068T   24030.91232946  .00002080  00000+0  27017-3 0  9990
2 56727  86.1980  20.9908 0002641  93.3434 266.8089 14.80244072 37920
IRIDIUM 174             
1 56728U 23068U   24031.04217062  .00002052  00000+0  26652-3 0  9991
2 56728  86.1986  21.0216 0002544  92.1533 267.9979 14.80237880 37941
IRIDIUM 178             
1 56729U 23068V   24031.03683566  .00000809  00000+0  10302-3 0  9990
2 56729  86.5768  31.9357 0002607  95.9048 264.2471 14.80212161 37944
IRIDIUM 179             
1 56730U 23068W   24030.96382382  .00000795  00000+0  10119-3 0  9995
2 56730  86.6775  34.3593 0002289  95.5115 264.6368 14.80205089 37930
